[{"OBJECT_NAME":"STARLINK-31547","OBJECT_ID":"2024-060S","EPOCH":"2026-03-09T13:19:48.616320","MEAN_MOTION":15.2757097,"ECCENTRICITY":0.00011919,"INCLINATION":43.0032,"RA_OF_ASC_NODE":249.2555,"ARG_OF_PERICENTER":266.1269,"MEAN_ANOMALY":93.9446,"EPHEMERIS_TYPE":0,"CLASSIFICATION_TYPE":"U","NORAD_CAT_ID":59364,"ELEMENT_SET_NO":999,"REV_AT_EPOCH":11017,"BSTAR":3.831808e-6,"MEAN_MOTION_DOT":-1.57e-6,"MEAN_MOTION_DDOT":0},{"OBJECT_NAME":"COSMOS 1758","OBJECT_ID":"1986-046A","EPOCH":"2026-03-09T22:23:33.220896","MEAN_MOTION":15.25706639,"ECCENTRICITY":0.00131526,"INCLINATION":82.4607,"RA_OF_ASC_NODE":143.3203,"ARG_OF_PERICENTER":337.3781,"MEAN_ANOMALY":22.6875,"EPHEMERIS_TYPE":0,"CLASSIFICATION_TYPE":"U","NORAD_CAT_ID":16791,"ELEMENT_SET_NO":999,"REV_AT_EPOCH":16610,"BSTAR":0.00027304427,"MEAN_MOTION_DOT":7.006e-5,"MEAN_MOTION_DDOT":0}]
